CCSDS_OMM_VERS = 2.0
CREATION_DATE  = 
ORIGINATOR     = 

OBJECT_NAME    = 2025-274A
OBJECT_ID      = 2025-274A
CENTER_NAME    = EARTH
REF_FRAME      = TEME
TIME_SYSTEM    = UTC
MEAN_ELEMENT_THEORY = SGP/SGP4

EPOCH          = 2025-11-30T03:22:58.151712
MEAN_MOTION    = 14.91590260
ECCENTRICITY   = .0010659
INCLINATION    = 97.7379
RA_OF_ASC_NODE = 261.5620
ARG_OF_PERICENTER = 299.7269
MEAN_ANOMALY   = 60.2889

EPHEMERIS_TYPE = 0
CLASSIFICATION_TYPE = U
NORAD_CAT_ID   = 66650
ELEMENT_SET_NO = 999
REV_AT_EPOCH   = 52
BSTAR          = .20219E-3
MEAN_MOTION_DOT = .1974E-4
MEAN_MOTION_DDOT = 0

CCSDS_OMM_VERS = 2.0
CREATION_DATE  = 
ORIGINATOR     = 

OBJECT_NAME    = 2025-274B
OBJECT_ID      = 2025-274B
CENTER_NAME    = EARTH
REF_FRAME      = TEME
TIME_SYSTEM    = UTC
MEAN_ELEMENT_THEORY = SGP/SGP4

EPOCH          = 2025-11-30T03:22:47.515008
MEAN_MOTION    = 14.91646602
ECCENTRICITY   = .0010976
INCLINATION    = 97.7368
RA_OF_ASC_NODE = 261.5617
ARG_OF_PERICENTER = 299.0947
MEAN_ANOMALY   = 60.9172

EPHEMERIS_TYPE = 0
CLASSIFICATION_TYPE = U
NORAD_CAT_ID   = 66651
ELEMENT_SET_NO = 999
REV_AT_EPOCH   = 52
BSTAR          = .34811E-3
MEAN_MOTION_DOT = .3446E-4
MEAN_MOTION_DDOT = 0

CCSDS_OMM_VERS = 2.0
CREATION_DATE  = 
ORIGINATOR     = 

OBJECT_NAME    = 2025-274C
OBJECT_ID      = 2025-274C
CENTER_NAME    = EARTH
REF_FRAME      = TEME
TIME_SYSTEM    = UTC
MEAN_ELEMENT_THEORY = SGP/SGP4

EPOCH          = 2025-11-30T11:25:13.463328
MEAN_MOTION    = 14.91800928
ECCENTRICITY   = .0010705
INCLINATION    = 97.7373
RA_OF_ASC_NODE = 261.8916
ARG_OF_PERICENTER = 304.4816
MEAN_ANOMALY   = 55.5391

EPHEMERIS_TYPE = 0
CLASSIFICATION_TYPE = U
NORAD_CAT_ID   = 66652
ELEMENT_SET_NO = 999
REV_AT_EPOCH   = 57
BSTAR          = .30106E-3
MEAN_MOTION_DOT = .2984E-4
MEAN_MOTION_DDOT = 0

CCSDS_OMM_VERS = 2.0
CREATION_DATE  = 
ORIGINATOR     = 

OBJECT_NAME    = 2025-274D
OBJECT_ID      = 2025-274D
CENTER_NAME    = EARTH
REF_FRAME      = TEME
TIME_SYSTEM    = UTC
MEAN_ELEMENT_THEORY = SGP/SGP4

EPOCH          = 2025-11-30T01:45:39.843648
MEAN_MOTION    = 14.91805613
ECCENTRICITY   = .0011587
INCLINATION    = 97.7378
RA_OF_ASC_NODE = 261.4962
ARG_OF_PERICENTER = 301.8172
MEAN_ANOMALY   = 58.1918

EPHEMERIS_TYPE = 0
CLASSIFICATION_TYPE = U
NORAD_CAT_ID   = 66653
ELEMENT_SET_NO = 999
REV_AT_EPOCH   = 51
BSTAR          = .14517E-3
MEAN_MOTION_DOT = .141E-4
MEAN_MOTION_DDOT = 0

CCSDS_OMM_VERS = 2.0
CREATION_DATE  = 
ORIGINATOR     = 

OBJECT_NAME    = 2025-274E
OBJECT_ID      = 2025-274E
CENTER_NAME    = EARTH
REF_FRAME      = TEME
TIME_SYSTEM    = UTC
MEAN_ELEMENT_THEORY = SGP/SGP4

EPOCH          = 2025-11-30T11:24:36.080640
MEAN_MOTION    = 14.91970267
ECCENTRICITY   = .001206
INCLINATION    = 97.7371
RA_OF_ASC_NODE = 261.8923
ARG_OF_PERICENTER = 301.6418
MEAN_ANOMALY   = 58.3624

EPHEMERIS_TYPE = 0
CLASSIFICATION_TYPE = U
NORAD_CAT_ID   = 66654
ELEMENT_SET_NO = 999
REV_AT_EPOCH   = 57
BSTAR          = .35E-3
MEAN_MOTION_DOT = .3494E-4
MEAN_MOTION_DDOT = 0

CCSDS_OMM_VERS = 2.0
CREATION_DATE  = 
ORIGINATOR     = 

OBJECT_NAME    = 2025-274F
OBJECT_ID      = 2025-274F
CENTER_NAME    = EARTH
REF_FRAME      = TEME
TIME_SYSTEM    = UTC
MEAN_ELEMENT_THEORY = SGP/SGP4

EPOCH          = 2025-11-30T11:24:18.612288
MEAN_MOTION    = 14.92137651
ECCENTRICITY   = .0008206
INCLINATION    = 97.7343
RA_OF_ASC_NODE = 261.8932
ARG_OF_PERICENTER = 327.2365
MEAN_ANOMALY   = 32.8344

EPHEMERIS_TYPE = 0
CLASSIFICATION_TYPE = U
NORAD_CAT_ID   = 66655
ELEMENT_SET_NO = 999
REV_AT_EPOCH   = 57
BSTAR          = .33765E-3
MEAN_MOTION_DOT = .3381E-4
MEAN_MOTION_DDOT = 0

CCSDS_OMM_VERS = 2.0
CREATION_DATE  = 
ORIGINATOR     = 

OBJECT_NAME    = 2025-274G
OBJECT_ID      = 2025-274G
CENTER_NAME    = EARTH
REF_FRAME      = TEME
TIME_SYSTEM    = UTC
MEAN_ELEMENT_THEORY = SGP/SGP4

EPOCH          = 2025-11-30T11:23:56.958720
MEAN_MOTION    = 14.92149503
ECCENTRICITY   = .0012744
INCLINATION    = 97.7369
RA_OF_ASC_NODE = 261.8927
ARG_OF_PERICENTER = 303.0630
MEAN_ANOMALY   = 56.9365

EPHEMERIS_TYPE = 0
CLASSIFICATION_TYPE = U
NORAD_CAT_ID   = 66656
ELEMENT_SET_NO = 999
REV_AT_EPOCH   = 57
BSTAR          = .37864E-3
MEAN_MOTION_DOT = .3802E-4
MEAN_MOTION_DDOT = 0

CCSDS_OMM_VERS = 2.0
CREATION_DATE  = 
ORIGINATOR     = 

OBJECT_NAME    = 2025-274H
OBJECT_ID      = 2025-274H
CENTER_NAME    = EARTH
REF_FRAME      = TEME
TIME_SYSTEM    = UTC
MEAN_ELEMENT_THEORY = SGP/SGP4

EPOCH          = 2025-11-30T11:23:18.771648
MEAN_MOTION    = 14.92330081
ECCENTRICITY   = .001143
INCLINATION    = 97.7367
RA_OF_ASC_NODE = 261.8934
ARG_OF_PERICENTER = 321.8351
MEAN_ANOMALY   = 38.2058

EPHEMERIS_TYPE = 0
CLASSIFICATION_TYPE = U
NORAD_CAT_ID   = 66657
ELEMENT_SET_NO = 999
REV_AT_EPOCH   = 57
BSTAR          = .37932E-3
MEAN_MOTION_DOT = .3826E-4
MEAN_MOTION_DDOT = 0

CCSDS_OMM_VERS = 2.0
CREATION_DATE  = 
ORIGINATOR     = 

OBJECT_NAME    = 2025-274J
OBJECT_ID      = 2025-274J
CENTER_NAME    = EARTH
REF_FRAME      = TEME
TIME_SYSTEM    = UTC
MEAN_ELEMENT_THEORY = SGP/SGP4

EPOCH          = 2025-11-30T11:22:40.022112
MEAN_MOTION    = 14.92505783
ECCENTRICITY   = .0012029
INCLINATION    = 97.7368
RA_OF_ASC_NODE = 261.8940
ARG_OF_PERICENTER = 324.4724
MEAN_ANOMALY   = 35.5693

EPHEMERIS_TYPE = 0
CLASSIFICATION_TYPE = U
NORAD_CAT_ID   = 66658
ELEMENT_SET_NO = 999
REV_AT_EPOCH   = 57
BSTAR          = .33499E-3
MEAN_MOTION_DOT = .3387E-4
MEAN_MOTION_DDOT = 0

CCSDS_OMM_VERS = 2.0
CREATION_DATE  = 
ORIGINATOR     = 

OBJECT_NAME    = 2025-274K
OBJECT_ID      = 2025-274K
CENTER_NAME    = EARTH
REF_FRAME      = TEME
TIME_SYSTEM    = UTC
MEAN_ELEMENT_THEORY = SGP/SGP4

EPOCH          = 2025-11-30T11:21:59.249088
MEAN_MOTION    = 14.92692109
ECCENTRICITY   = .0012781
INCLINATION    = 97.7369
RA_OF_ASC_NODE = 261.8946
ARG_OF_PERICENTER = 325.3986
MEAN_ANOMALY   = 34.6400

EPHEMERIS_TYPE = 0
CLASSIFICATION_TYPE = U
NORAD_CAT_ID   = 66659
ELEMENT_SET_NO = 999
REV_AT_EPOCH   = 57
BSTAR          = .34966E-3
MEAN_MOTION_DOT = .3555E-4
MEAN_MOTION_DDOT = 0

CCSDS_OMM_VERS = 2.0
CREATION_DATE  = 
ORIGINATOR     = 

OBJECT_NAME    = 2025-274L
OBJECT_ID      = 2025-274L
CENTER_NAME    = EARTH
REF_FRAME      = TEME
TIME_SYSTEM    = UTC
MEAN_ELEMENT_THEORY = SGP/SGP4

EPOCH          = 2025-11-30T11:21:26.607168
MEAN_MOTION    = 14.92842262
ECCENTRICITY   = .0013404
INCLINATION    = 97.7373
RA_OF_ASC_NODE = 261.8953
ARG_OF_PERICENTER = 325.9289
MEAN_ANOMALY   = 34.1068

EPHEMERIS_TYPE = 0
CLASSIFICATION_TYPE = U
NORAD_CAT_ID   = 66660
ELEMENT_SET_NO = 999
REV_AT_EPOCH   = 57
BSTAR          = .38709E-3
MEAN_MOTION_DOT = .3958E-4
MEAN_MOTION_DDOT = 0

CCSDS_OMM_VERS = 2.0
CREATION_DATE  = 
ORIGINATOR     = 

OBJECT_NAME    = 2025-274M
OBJECT_ID      = 2025-274M
CENTER_NAME    = EARTH
REF_FRAME      = TEME
TIME_SYSTEM    = UTC
MEAN_ELEMENT_THEORY = SGP/SGP4

EPOCH          = 2025-11-30T11:20:52.094688
MEAN_MOTION    = 14.92996511
ECCENTRICITY   = .0014084
INCLINATION    = 97.7372
RA_OF_ASC_NODE = 261.8957
ARG_OF_PERICENTER = 326.6494
MEAN_ANOMALY   = 33.3837

EPHEMERIS_TYPE = 0
CLASSIFICATION_TYPE = U
NORAD_CAT_ID   = 66661
ELEMENT_SET_NO = 999
REV_AT_EPOCH   = 57
BSTAR          = .30227E-3
MEAN_MOTION_DOT = .3091E-4
MEAN_MOTION_DDOT = 0

