2025-274A               
1 66650U 25274A   25334.14095083  .00001974  00000+0  20219-3 0  9997
2 66650  97.7379 261.5620 0010659 299.7269  60.2889 14.91590260   521
2025-274B               
1 66651U 25274B   25334.14082772  .00003446  00000+0  34811-3 0  9998
2 66651  97.7368 261.5617 0010976 299.0947  60.9172 14.91646602   528
2025-274C               
1 66652U 25274C   25334.47585027  .00002984  00000+0  30106-3 0  9995
2 66652  97.7373 261.8916 0010705 304.4816  55.5391 14.91800928   577
2025-274D               
1 66653U 25274D   25334.07337782  .00001410  00000+0  14517-3 0  9996
2 66653  97.7378 261.4962 0011587 301.8172  58.1918 14.91805613   519
2025-274E               
1 66654U 25274E   25334.47541760  .00003494  00000+0  35000-3 0  9998
2 66654  97.7371 261.8923 0012060 301.6418  58.3624 14.91970267   572
2025-274F               
1 66655U 25274F   25334.47521542  .00003381  00000+0  33765-3 0  9996
2 66655  97.7343 261.8932 0008206 327.2365  32.8344 14.92137651   573
2025-274G               
1 66656U 25274G   25334.47496480  .00003802  00000+0  37864-3 0  9991
2 66656  97.7369 261.8927 0012744 303.0630  56.9365 14.92149503   574
2025-274H               
1 66657U 25274H   25334.47452282  .00003826  00000+0  37932-3 0  9996
2 66657  97.7367 261.8934 0011430 321.8351  38.2058 14.92330081   575
2025-274J               
1 66658U 25274J   25334.47407433  .00003387  00000+0  33499-3 0  9991
2 66658  97.7368 261.8940 0012029 324.4724  35.5693 14.92505783   570
2025-274K               
1 66659U 25274K   25334.47360242  .00003555  00000+0  34966-3 0  9995
2 66659  97.7369 261.8946 0012781 325.3986  34.6400 14.92692109   578
2025-274L               
1 66660U 25274L   25334.47322462  .00003958  00000+0  38709-3 0  9995
2 66660  97.7373 261.8953 0013404 325.9289  34.1068 14.92842262   570
2025-274M               
1 66661U 25274M   25334.47282517  .00003091  00000+0  30227-3 0  9997
2 66661  97.7372 261.8957 0014084 326.6494  33.3837 14.92996511   577
